OBJECT_NAME,OBJECT_ID,EPOCH,MEAN_MOTION,ECCENTRICITY,INCLINATION,RA_OF_ASC_NODE,ARG_OF_PERICENTER,MEAN_ANOMALY,EPHEMERIS_TYPE,CLASSIFICATION_TYPE,NORAD_CAT_ID,ELEMENT_SET_NO,REV_AT_EPOCH,BSTAR,MEAN_MOTION_DOT,MEAN_MOTION_DDOT
SYRACUSE 4B,2023-093B,2026-07-02T17:22:23.172384,1.00271030,.00002791,0.0187,44.7024,131.5119,358.6772,0,U,57214,999,712,0,-.43E-6,0
JUPITER 3 (ECHOSTAR 24),2023-108A,2026-07-02T11:38:50.056512,1.00268982,.00011621,0.0232,29.2689,65.2078,265.5365,0,U,57479,999,1079,0,0,0
GALAXY 37 (G-37),2023-112A,2026-07-04T18:24:54.980064,1.00270417,.00019144,0.0201,30.4834,81.9198,319.6004,0,U,57493,999,1071,0,0,0
LUDI TANCE-4 01A,2023-120A,2026-07-04T20:12:26.296128,1.00265953,.00015213,15.0931,193.5356,24.9660,96.9123,0,U,57624,999,1072,0,-.16E-5,0
TJS-10,2023-169A,2026-07-02T18:00:47.329920,1.00269643,.0004215,2.5821,80.3140,104.6482,98.4495,0,U,58204,999,969,0,-.239E-5,0
ZHONGXING-6E,2023-172A,2026-07-04T22:59:28.938048,1.00266905,.0002365,0.0118,23.3503,83.1994,276.8076,0,U,58253,999,983,0,0,0
YAOGAN-41,2023-197A,2026-07-04T23:01:36.233760,1.00271887,.00143813,3.0976,313.3951,196.8094,241.3745,0,U,58582,999,950,0,-.348E-5,0
OVZON-3,2024-003A,2026-07-02T20:25:21.395712,1.00272523,.00003895,0.0105,70.1871,318.3652,258.3697,0,U,58698,999,760,0,.62E-6,0
INSAT-3DS,2024-033A,2026-07-04T19:24:40.880736,1.00273232,.0001235,0.0762,96.1964,13.6104,186.2343,0,U,58990,999,4724,0,-.143E-5,0
MERAH PUTIH 2,2024-035A,2026-07-02T19:44:26.331072,1.00266597,.00012542,0.0148,17.3979,72.7360,239.7841,0,U,58995,999,874,0,0,0
HULIANWAN GAOGUI-01 (HG-01),2024-040A,2026-07-04T10:37:24.699072,1.00274910,.00026817,0.0724,329.6733,74.6592,71.1112,0,U,59069,999,750,0,.168E-5,0
EUTELSAT 36D,2024-059A,2026-07-04T22:26:45.347712,1.00270921,.00002705,0.0206,46.1949,130.2870,118.9938,0,U,59346,999,832,0,0,0
PAKSAT-MM1,2024-104A,2026-07-04T21:02:56.141952,1.00275847,.00023155,0.0357,191.7396,250.2080,194.9028,0,U,59915,999,770,0,.166E-5,0
ASTRA 1P (SES-24),2024-115A,2026-07-02T17:48:31.220928,1.00270842,.00004457,0.0604,342.3847,177.5391,47.2003,0,U,60086,999,735,0,.131E-5,0
GOES 19,2024-119A,2026-07-04T20:22:27.842304,1.00270089,.00005708,0.0081,177.0624,357.0942,339.1148,0,U,60133,999,714,0,-.235E-5,0
ZHONGXING-3A,2024-122A,2026-07-01T14:30:39.981888,1.00276406,.0001711,0.0347,112.7027,13.4089,112.7870,0,U,60179,999,745,0,-.304E-5,0
TURKSAT 6A,2024-127A,2026-07-04T21:07:44.090688,1.00270642,.00027817,0.0145,191.6112,323.8327,126.3671,0,U,60233,999,719,0,0,0
HULIANWAN GAOGUI-02 (HG-02),2024-135A,2026-07-04T18:01:57.180864,1.00231145,.00079823,0.0454,350.6232,2.8010,352.8436,0,U,60327,999,767,0,-.17E-5,0
ZHONGXING-4A,2024-151A,2026-07-04T21:11:38.436000,1.00273656,.00002354,1.2712,270.5941,199.0794,249.3443,0,U,60606,999,693,0,-.349E-5,0
HULIANWAN GAOGUI-03 (HG-03),2024-181A,2026-07-04T20:21:57.890016,1.00269839,.0001338,0.0481,353.5592,106.0614,51.6047,0,U,61503,999,700,0,-.228E-5,0
DSN-3 (KIRAMEKI-3),2024-198A,2026-07-02T20:35:34.016640,1.00271811,.00009885,0.0195,25.1617,91.9857,256.7025,0,U,61733,999,607,0,-.239E-5,0
KOREASAT 6A,2024-206A,2026-07-04T21:27:38.566368,1.00273446,.00010291,0.0230,99.6328,339.9270,281.2528,0,U,61910,999,601,0,-.349E-5,0
OPTUS-X (ADS-01),2024-212A,2026-07-04T21:28:31.031040,1.00271706,.00024164,0.0161,307.7028,195.3572,258.3801,0,U,62006,999,593,0,-.13E-5,0
GSAT-N2 (GSAT-20),2024-214A,2026-07-04T21:39:51.925248,1.00272964,.00020307,0.0742,97.1741,359.2640,219.3977,0,U,62028,999,607,0,-.7E-7,0
SXM-9,2024-234A,2026-07-04T03:12:59.148288,1.00277558,.00051572,0.0183,329.9630,350.5629,284.7233,0,U,62259,999,574,0,-.194E-5,0
TJS-12,2024-246A,2026-07-04T21:25:38.807328,1.00272436,.00021045,0.6339,300.8280,104.0797,345.9618,0,U,62374,999,574,0,-.218E-5,0
NUVIEW ALPHA,2024-252B,2026-07-02T10:09:54.829728,1.00271006,.0001093,0.0500,33.1616,43.1718,273.4976,0,U,62455,999,397,0,-.205E-5,0
AGILA,2024-252C,2026-07-02T20:40:21.046080,1.00271235,.00010758,0.0622,123.0682,359.6550,260.4177,0,U,62456,999,531,0,-.171E-5,0
NUVIEW BRAVO,2024-252D,2026-07-02T10:09:54.829728,1.00271680,.0001692,0.0714,158.3856,340.3431,211.1034,0,U,62457,999,394,0,-.204E-5,0
THURAYA-4,2025-001A,2026-07-03T22:42:03.544704,1.00272723,.0000159,0.0204,68.0357,38.6779,200.0629,0,U,62483,999,434,0,.151E-5,0
SHIJIAN-25 (SJ-25),2025-002A,2026-07-02T18:21:01.463328,1.00272141,.005163,5.1479,61.0664,174.7980,87.5189,0,U,62485,999,551,0,-.341E-5,0
